ONEWEB-0584             
1 54651U 22166K   23152.40952968  .00000066  00000+0  12841-3 0  9994
2 54651  87.9180 105.3846 0002105  93.9946 266.1429 13.21826221 24645
ONEWEB-0585             
1 54652U 22166L   23152.43263746  .00000014  00000+0  27817-5 0  9991
2 54652  87.9161 105.3762 0002241  79.3920 280.7466 13.21828703 25127
ONEWEB-0586             
1 54653U 22166M   23152.36957301  .00000124  00000+0  26916-3 0  9990
2 54653  87.9230 105.4353 0002239  91.0744 269.0646 13.21824615 24648
ONEWEB-0587             
1 54654U 22166N   23152.41210778  .00000141  00000+0  25168-3 0  9994
2 54654  87.9634 105.3578 0005889  64.8938 295.2815 13.35291046 25249
ONEWEB-0589             
1 54655U 22166P   23152.36747847  .00000099  00000+0  20839-3 0  9993
2 54655  87.9232 105.3825 0002282 113.3783 246.7591 13.21828191 24660
ONEWEB-0590             
1 54656U 22166Q   23152.39269164  .00000034  00000+0  50307-4 0  9991
2 54656  87.9243 105.3727 0001939  76.1139 284.0210 13.21820493 25114
ONEWEB-0591             
1 54657U 22166R   23152.40533020  .00000006  00000+0 -16577-4 0  9990
2 54657  87.9234 105.3769 0002039  86.5661 273.5706 13.21826111 24685
ONEWEB-0592             
1 54658U 22166S   23152.40742824  .00000019  00000+0  13748-4 0  9995
2 54658  87.9305 105.3429 0001940  92.0355 268.1001 13.21828791 24561
ONEWEB-0593             
1 54659U 22166T   23152.43056386  .00000052  00000+0  94460-4 0  9997
2 54659  87.9230 105.3678 0002148  90.7215 269.4165 13.21826536 24678
ONEWEB-0594             
1 54660U 22166U   23152.37378653  .00000100  00000+0  21102-3 0  9992
2 54660  87.9306 105.3419 0002363  79.9907 280.1493 13.21826703 24684
ONEWEB-0595             
1 54661U 22166V   23152.42633882  .00000098  00000+0  20626-3 0  9993
2 54661  87.9152 105.3811 0002119  76.2226 283.9144 13.21828728 25137
ONEWEB-0596             
1 54662U 22166W   23152.40112379 -.00000044  00000+0 -13796-3 0  9998
2 54662  87.9181 105.3817 0001922  94.7795 265.3558 13.21824542 24663
ONEWEB-0597             
1 54663U 22166X   23152.38220334  .00000100  00000+0  20951-3 0  9999
2 54663  87.9177 105.3879 0002342  92.3948 267.7454 13.21826343 25133
ONEWEB-0600             
1 54664U 22166Y   23152.36327850  .00000111  00000+0  23615-3 0  9991
2 54664  87.9231 105.4207 0002282  88.0994 272.0401 13.21824671 24634
ONEWEB-0601             
1 54665U 22166Z   23152.42367973 -.00001270  00000+0 -25426-2 0  9999
2 54665  87.9918 105.3665 0004836  41.7745 318.3765 13.35159819 25279
ONEWEB-0602             
1 54666U 22166AA  23152.39901953 -.00000038  00000+0 -12313-3 0  9991
2 54666  87.9330 105.3462 0002093  91.4390 268.6983 13.21828173 24677
ONEWEB-0603             
1 54667U 22166AB  23152.40320313 -.00000089  00000+0 -24605-3 0  9992
2 54667  87.9163 105.3875 0002352  98.5482 261.5918 13.21823954 24603
ONEWEB-0604             
1 54668U 22166AC  23152.39058957 -.00000073  00000+0 -20727-3 0  9997
2 54668  87.9334 105.3451 0002559  96.8357 263.3068 13.21827448 24568
ONEWEB-0605             
1 54669U 22166AD  23152.38427507 -.00000319  00000+0 -80389-3 0  9991
2 54669  87.9186 105.4323 0001786  98.1381 261.9956 13.21825077 25103
ONEWEB-0606             
1 54670U 22166AE  23152.89870109 -.00000032  00000+0 -90090-4 0  9992
2 54670  87.9706 105.2567 0002712  90.9133 269.2319 13.35238143 25196
ONEWEB-0607             
1 54671U 22166AF  23152.90153626 -.00000019  00000+0 -76476-4 0  9990
2 54671  87.9319 105.2371 0002250  91.0763 269.0629 13.21827764 25198
ONEWEB-0608             
1 54672U 22166AG  23152.90782013 -.00012807  00000+0 -31059-1 0  9992
2 54672  87.9173 105.3146 0001734 105.6046 254.5279 13.21880015 25200
ONEWEB-0610             
1 54673U 22166AH  23152.35906855  .00000144  00000+0  31747-3 0  9999
2 54673  87.9158 105.4279 0002112 102.0988 258.0383 13.21824983 24575
ONEWEB-0611             
1 54674U 22166AJ  23152.42843379 -.00000236  00000+0 -60198-3 0  9995
2 54674  87.9183 105.3706 0002371  70.1547 289.9843 13.21825406 25049
ONEWEB-0612             
1 54675U 22166AK  23152.89524696  .00000016  00000+0  69888-5 0  9996
2 54675  87.9292 105.2703 0001765  94.9730 265.1606 13.21827690 25096
ONEWEB-0615             
1 54676U 22166AL  23152.42212307  .00000125  00000+0  27161-3 0  9996
2 54676  87.9151 105.3733 0002250  90.2765 269.8626 13.21829454 24577
ONEWEB-0655             
1 54677U 22166AM  23152.39690050  .00000013  00000+0 -38387-6 0  9990
2 54677  87.9242 105.3751 0002076  86.3875 273.7496 13.21829988 24563
ONEWEB-0659             
1 54678U 22166AN  23152.41374181  .00000071  00000+0  13988-3 0  9998
2 54678  87.9229 105.4214 0001936  73.3388 286.7958 13.21825874 25123
ONEWEB-0685             
1 54679U 22166AP  23152.41584328  .00000126  00000+0  27407-3 0  9997
2 54679  87.9232 105.3695 0002731 101.1726 258.9715 13.21827537 24545
ONEWEB-0712             
1 54680U 22166AQ  23152.91667824  .00000015  00000+0  00000+0 0  9990
2 54680  87.5079  90.6219 0013256  37.2893 343.8082 13.51489840 26129
ONEWEB-0714             
1 54681U 22166AR  23152.42004522  .00000068  00000+0  13283-3 0  9996
2 54681  87.9144 105.3839 0002356  90.6709 269.4695 13.21825691 24662
ONEWEB-0532             
1 55140U 23004A   23152.50002315 -.00719216  00000+0 -54512+0 0  9996
2 55140  87.2361 228.5246 0001756  80.3337 251.6118 13.96724230  1301
ONEWEB-0533             
1 55141U 23004B   23152.25176047  .00000339  00000+0  10322-3 0  9995
2 55141  86.8407 227.0289 0004299  83.3263 276.8425 14.39154418 20994
ONEWEB-0541             
1 55142U 23004C   23152.26620799  .00000050  00000+0  83551-4 0  9990
2 55142  88.0387 241.6071 0001607 104.2287 255.9028 13.25749899 20125
ONEWEB-0543             
1 55143U 23004D   23152.23532174  .00001147  00000+0  20528-3 0  9999
2 55143  86.6288 226.0476 0005574  93.0454 267.1398 14.65982332 21058
ONEWEB-0544             
1 55144U 23004E   23152.24016262  .00001160  00000+0  20789-3 0  9990
2 55144  86.6310 225.9640 0003610  97.0113 263.1511 14.65962669 21066
ONEWEB-0560             
1 55145U 23004F   23152.23611762  .00001170  00000+0  20959-3 0  9996
2 55145  86.6325 225.9863 0003566  78.9695 281.1919 14.65986573 21065
ONEWEB-0565             
1 55146U 23004G   23152.27487621  .00001196  00000+0  21457-3 0  9998
2 55146  86.6306 225.8957 0003830  91.7954 268.3699 14.65933536 21077
ONEWEB-0567             
1 55147U 23004H   23152.28570921  .00000233  00000+0  38326-4 0  9991
2 55147  86.6304 225.9024 0006515 100.6004 259.5944 14.65986545 21074
ONEWEB-0569             
1 55148U 23004J   23152.26554097  .00001134  00000+0  20322-3 0  9993
2 55148  86.6286 225.9588 0005088 111.3782 248.7975 14.65916549 21065
ONEWEB-0570             
1 55149U 23004K   23152.24836184  .00001106  00000+0  19720-3 0  9991
2 55149  86.6282 225.9423 0003769 101.0667 259.0971 14.66150381 21068
ONEWEB-0571             
1 55150U 23004L   23152.22860372  .00001178  00000+0  21106-3 0  9997
2 55150  86.6327 225.9834 0005026  93.3835 266.7953 14.65984333 21060
ONEWEB-0572             
1 55151U 23004M   23152.50002315 -.00916875  00000+0 -72637+0 0  9996
2 55151  87.2023 228.4853 0004200  84.9221 296.7976 13.94430027  1308
ONEWEB-0573             
1 55152U 23004N   23152.26563940  .00001090  00000+0  19518-3 0  9991
2 55152  86.6295 225.9800 0004552  97.0887 263.0845 14.65915622 21065
ONEWEB-0588             
1 55153U 23004P   23152.24154438  .00001219  00000+0  21858-3 0  9991
2 55153  86.6289 226.0561 0006679 100.0211 260.1756 14.65972841 21057
ONEWEB-0598             
1 55154U 23004Q   23152.29500910  .00000047  00000+0  79165-4 0  9990
2 55154  87.9430 242.0157 0001662 110.0969 250.0346 13.24536994 20058
ONEWEB-0599             
1 55155U 23004R   23152.50002315 -.00887920  00000+0 -71899+0 0  9997
2 55155  87.2265 228.4897 0014991  95.6342 321.4424 13.93548046  1303
ONEWEB-0614             
1 55156U 23004S   23152.30164948  .00000014  00000+0  21453-5 0  9993
2 55156  87.9434 242.0049 0001405 119.5567 240.5709 13.24646340 20039
ONEWEB-0616             
1 55157U 23004T   23152.91667824 -.00831919  00000+0 -51598+0 0  9997
2 55157  87.0615 227.4339 0014801  95.4919  86.5231 14.08326804 21030
ONEWEB-0617             
1 55158U 23004U   23152.27601774  .00000037  00000+0  56719-4 0  9991
2 55158  87.9445 242.0180 0002510 126.2818 233.8550 13.24477066 20048
ONEWEB-0618             
1 55159U 23004V   23152.28843563  .00000204  00000+0  76619-4 0  9994
2 55159  86.9116 228.5280 0015862  83.9643 276.3357 14.26578151 20892
ONEWEB-0619             
1 55160U 23004W   23152.89467472 -.00091543  00000+0 -66359-1 0  9999
2 55160  87.2358 228.6027 0017823  97.5791 262.7411 13.97074945 20978
ONEWEB-0620             
1 55161U 23004X   23152.25738082 -.00000017  00000+0 -69376-4 0  9999
2 55161  87.9424 242.0248 0001904 103.7380 256.3967 13.24554600 20013
ONEWEB-0621             
1 55162U 23004Y   23152.30524903  .00000069  00000+0  98201-4 0  9995
2 55162  87.7038 244.2324 0012527 129.5364 230.6890 13.41778286 19827
ONEWEB-0622             
1 55163U 23004Z   23152.29681892 -.00000021  00000+0 -80284-4 0  9997
2 55163  87.9451 241.9975 0002354 152.6380 207.4879 13.24470119 20047
ONEWEB-0623             
1 55164U 23004AA  23152.91667824 -.00677480  00000+0 -51810+0 0  9993
2 55164  87.2542 228.6518 0015475  99.2006 287.2289 13.96460488 20976
ONEWEB-0624             
1 55165U 23004AB  23152.25288152  .00001162  00000+0  20809-3 0  9998
2 55165  86.6332 225.9057 0003324 148.4480 211.6934 14.66010686 21077
ONEWEB-0625             
1 55166U 23004AC  23152.28709911  .00000110  00000+0  65449-4 0  9995
2 55166  87.2225 229.0452 0014614  96.8795 263.4044 13.97633110 20868
ONEWEB-0626             
1 55167U 23004AD  23152.27105187  .00000134  00000+0  82771-4 0  9993
2 55167  87.2163 228.9558 0017857 108.8664 251.4450 13.97379984 20871
